[{"OBJECT_NAME":"ONEWEB-0578","OBJECT_ID":"2023-043X","EPOCH":"2025-07-31T12:42:12.582720","MEAN_MOTION":13.21826762,"ECCENTRICITY":0.0001811,"INCLINATION":87.9271,"RA_OF_ASC_NODE":307.9496,"ARG_OF_PERICENTER":103.6485,"MEAN_ANOMALY":256.4851,"EPHEMERIS_TYPE":0,"CLASSIFICATION_TYPE":"U","NORAD_CAT_ID":56067,"ELEMENT_SET_NO":999,"REV_AT_EPOCH":11678,"BSTAR":-5.3095e-5,"MEAN_MOTION_DOT":-9.0e-8,"MEAN_MOTION_DDOT":0},{"OBJECT_NAME":"ONEWEB-0579","OBJECT_ID":"2023-043Y","EPOCH":"2025-07-31T12:28:35.317344","MEAN_MOTION":13.21827582,"ECCENTRICITY":0.0002296,"INCLINATION":87.9271,"RA_OF_ASC_NODE":307.9372,"ARG_OF_PERICENTER":96.176,"MEAN_ANOMALY":263.9635,"EPHEMERIS_TYPE":0,"CLASSIFICATION_TYPE":"U","NORAD_CAT_ID":56068,"ELEMENT_SET_NO":999,"REV_AT_EPOCH":11679,"BSTAR":0.00029709,"MEAN_MOTION_DOT":1.36e-6,"MEAN_MOTION_DDOT":0},{"OBJECT_NAME":"ONEWEB-0581","OBJECT_ID":"2023-043Z","EPOCH":"2025-07-31T05:09:44.756640","MEAN_MOTION":13.16595512,"ECCENTRICITY":0.0002402,"INCLINATION":87.9042,"RA_OF_ASC_NODE":292.7687,"ARG_OF_PERICENTER":105.7462,"MEAN_ANOMALY":254.3933,"EPHEMERIS_TYPE":0,"CLASSIFICATION_TYPE":"U","NORAD_CAT_ID":56069,"ELEMENT_SET_NO":999,"REV_AT_EPOCH":11763,"BSTAR":0.00027027,"MEAN_MOTION_DOT":1.16e-6,"MEAN_MOTION_DDOT":0},{"OBJECT_NAME":"ONEWEB-0609","OBJECT_ID":"2023-043AA","EPOCH":"2025-07-30T20:11:49.805952","MEAN_MOTION":13.15549441,"ECCENTRICITY":0.0001842,"INCLINATION":87.9085,"RA_OF_ASC_NODE":323.3004,"ARG_OF_PERICENTER":96.9704,"MEAN_ANOMALY":263.1636,"EPHEMERIS_TYPE":0,"CLASSIFICATION_TYPE":"U","NORAD_CAT_ID":56070,"ELEMENT_SET_NO":999,"REV_AT_EPOCH":11418,"BSTAR":0.00035091,"MEAN_MOTION_DOT":1.45e-6,"MEAN_MOTION_DDOT":0},{"OBJECT_NAME":"ONEWEB-0613","OBJECT_ID":"2023-043AB","EPOCH":"2025-07-30T20:04:59.062080","MEAN_MOTION":13.15549547,"ECCENTRICITY":0.0002077,"INCLINATION":87.9091,"RA_OF_ASC_NODE":323.314,"ARG_OF_PERICENTER":94.9063,"MEAN_ANOMALY":265.2304,"EPHEMERIS_TYPE":0,"CLASSIFICATION_TYPE":"U","NORAD_CAT_ID":56071,"ELEMENT_SET_NO":999,"REV_AT_EPOCH":11418,"BSTAR":0.00045384,"MEAN_MOTION_DOT":1.84e-6,"MEAN_MOTION_DDOT":0},{"OBJECT_NAME":"ONEWEB-0630","OBJECT_ID":"2023-043AC","EPOCH":"2025-07-31T14:13:20.473248","MEAN_MOTION":13.15550447,"ECCENTRICITY":0.000218,"INCLINATION":87.9092,"RA_OF_ASC_NODE":323.1402,"ARG_OF_PERICENTER":92.1468,"MEAN_ANOMALY":267.9912,"EPHEMERIS_TYPE":0,"CLASSIFICATION_TYPE":"U","NORAD_CAT_ID":56072,"ELEMENT_SET_NO":999,"REV_AT_EPOCH":11518,"BSTAR":0.00067337,"MEAN_MOTION_DOT":2.66e-6,"MEAN_MOTION_DDOT":0},{"OBJECT_NAME":"ONEWEB-0632","OBJECT_ID":"2023-043AD","EPOCH":"2025-07-30T19:51:16.440768","MEAN_MOTION":13.15550466,"ECCENTRICITY":0.0002132,"INCLINATION":87.9086,"RA_OF_ASC_NODE":323.3119,"ARG_OF_PERICENTER":102.1946,"MEAN_ANOMALY":257.9423,"EPHEMERIS_TYPE":0,"CLASSIFICATION_TYPE":"U","NORAD_CAT_ID":56073,"ELEMENT_SET_NO":999,"REV_AT_EPOCH":11417,"BSTAR":0.00020426,"MEAN_MOTION_DOT":9.0e-7,"MEAN_MOTION_DDOT":0},{"OBJECT_NAME":"ONEWEB-0633","OBJECT_ID":"2023-043AE","EPOCH":"2025-07-30T19:42:09.260928","MEAN_MOTION":13.15546685,"ECCENTRICITY":0.000197,"INCLINATION":87.9077,"RA_OF_ASC_NODE":323.2794,"ARG_OF_PERICENTER":86.9939,"MEAN_ANOMALY":273.1417,"EPHEMERIS_TYPE":0,"CLASSIFICATION_TYPE":"U","NORAD_CAT_ID":56074,"ELEMENT_SET_NO":999,"REV_AT_EPOCH":11415,"BSTAR":3.4591e-5,"MEAN_MOTION_DOT":2.6e-7,"MEAN_MOTION_DDOT":0},{"OBJECT_NAME":"ONEWEB-0634","OBJECT_ID":"2023-043AF","EPOCH":"2025-07-30T19:21:37.072512","MEAN_MOTION":13.15549603,"ECCENTRICITY":0.00016,"INCLINATION":87.9089,"RA_OF_ASC_NODE":323.3201,"ARG_OF_PERICENTER":94.3681,"MEAN_ANOMALY":265.7632,"EPHEMERIS_TYPE":0,"CLASSIFICATION_TYPE":"U","NORAD_CAT_ID":56075,"ELEMENT_SET_NO":999,"REV_AT_EPOCH":11414,"BSTAR":-0.00040654,"MEAN_MOTION_DOT":-1.4e-6,"MEAN_MOTION_DDOT":0},{"OBJECT_NAME":"ONEWEB-0635","OBJECT_ID":"2023-043AG","EPOCH":"2025-07-30T19:14:46.694112","MEAN_MOTION":13.15547937,"ECCENTRICITY":0.000217,"INCLINATION":87.9059,"RA_OF_ASC_NODE":323.2947,"ARG_OF_PERICENTER":105.2852,"MEAN_ANOMALY":254.8518,"EPHEMERIS_TYPE":0,"CLASSIFICATION_TYPE":"U","NORAD_CAT_ID":56076,"ELEMENT_SET_NO":999,"REV_AT_EPOCH":11417,"BSTAR":-0.00026603,"MEAN_MOTION_DOT":-8.7e-7,"MEAN_MOTION_DDOT":0},{"OBJECT_NAME":"ONEWEB-0636","OBJECT_ID":"2023-043AH","EPOCH":"2025-07-31T00:31:55.498368","MEAN_MOTION":13.15550343,"ECCENTRICITY":0.0002115,"INCLINATION":87.9069,"RA_OF_ASC_NODE":323.2638,"ARG_OF_PERICENTER":104.0155,"MEAN_ANOMALY":256.121,"EPHEMERIS_TYPE":0,"CLASSIFICATION_TYPE":"U","NORAD_CAT_ID":56077,"ELEMENT_SET_NO":999,"REV_AT_EPOCH":11509,"BSTAR":-0.00022371,"MEAN_MOTION_DOT":-7.1e-7,"MEAN_MOTION_DDOT":0},{"OBJECT_NAME":"ONEWEB-0637","OBJECT_ID":"2023-043AJ","EPOCH":"2025-07-30T20:43:47.129088","MEAN_MOTION":13.15547276,"ECCENTRICITY":0.0001832,"INCLINATION":87.9079,"RA_OF_ASC_NODE":323.3059,"ARG_OF_PERICENTER":110.7899,"MEAN_ANOMALY":249.3428,"EPHEMERIS_TYPE":0,"CLASSIFICATION_TYPE":"U","NORAD_CAT_ID":56078,"ELEMENT_SET_NO":999,"REV_AT_EPOCH":11418,"BSTAR":-0.00021259,"MEAN_MOTION_DOT":-6.7e-7,"MEAN_MOTION_DDOT":0},{"OBJECT_NAME":"ONEWEB-0647","OBJECT_ID":"2023-043AK","EPOCH":"2025-07-31T13:02:37.397760","MEAN_MOTION":13.15550206,"ECCENTRICITY":0.0002142,"INCLINATION":87.9087,"RA_OF_ASC_NODE":323.1806,"ARG_OF_PERICENTER":98.7041,"MEAN_ANOMALY":261.4332,"EPHEMERIS_TYPE":0,"CLASSIFICATION_TYPE":"U","NORAD_CAT_ID":56079,"ELEMENT_SET_NO":999,"REV_AT_EPOCH":11426,"BSTAR":0.00040138,"MEAN_MOTION_DOT":1.64e-6,"MEAN_MOTION_DDOT":0},{"OBJECT_NAME":"ONEWEB-0651","OBJECT_ID":"2023-043AL","EPOCH":"2025-07-31T12:55:47.129952","MEAN_MOTION":13.15545802,"ECCENTRICITY":0.0002,"INCLINATION":87.9089,"RA_OF_ASC_NODE":323.1709,"ARG_OF_PERICENTER":109.7134,"MEAN_ANOMALY":250.4212,"EPHEMERIS_TYPE":0,"CLASSIFICATION_TYPE":"U","NORAD_CAT_ID":56080,"ELEMENT_SET_NO":999,"REV_AT_EPOCH":11426,"BSTAR":0.002974,"MEAN_MOTION_DOT":1.133e-5,"MEAN_MOTION_DDOT":0},{"OBJECT_NAME":"ONEWEB-0718","OBJECT_ID":"2023-043AM","EPOCH":"2025-07-30T20:23:13.416576","MEAN_MOTION":13.15550016,"ECCENTRICITY":0.0001449,"INCLINATION":87.9089,"RA_OF_ASC_NODE":323.2907,"ARG_OF_PERICENTER":95.1383,"MEAN_ANOMALY":264.9913,"EPHEMERIS_TYPE":0,"CLASSIFICATION_TYPE":"U","NORAD_CAT_ID":56081,"ELEMENT_SET_NO":999,"REV_AT_EPOCH":11418,"BSTAR":0.00022355,"MEAN_MOTION_DOT":9.7e-7,"MEAN_MOTION_DDOT":0},{"OBJECT_NAME":"ONEWEB-0561","OBJECT_ID":"2023-068A","EPOCH":"2025-07-31T03:22:18.302304","MEAN_MOTION":13.2076951,"ECCENTRICITY":0.000237,"INCLINATION":87.9281,"RA_OF_ASC_NODE":338.4221,"ARG_OF_PERICENTER":103.1932,"MEAN_ANOMALY":256.9465,"EPHEMERIS_TYPE":0,"CLASSIFICATION_TYPE":"U","NORAD_CAT_ID":56710,"ELEMENT_SET_NO":999,"REV_AT_EPOCH":10782,"BSTAR":0.0003895,"MEAN_MOTION_DOT":1.71e-6,"MEAN_MOTION_DDOT":0},{"OBJECT_NAME":"ONEWEB-0668","OBJECT_ID":"2023-068B","EPOCH":"2025-07-30T18:16:31.384704","MEAN_MOTION":13.16596216,"ECCENTRICITY":0.0001508,"INCLINATION":87.9057,"RA_OF_ASC_NODE":292.8255,"ARG_OF_PERICENTER":101.4425,"MEAN_ANOMALY":258.6875,"EPHEMERIS_TYPE":0,"CLASSIFICATION_TYPE":"U","NORAD_CAT_ID":56711,"ELEMENT_SET_NO":999,"REV_AT_EPOCH":10948,"BSTAR":0.00019406,"MEAN_MOTION_DOT":8.7e-7,"MEAN_MOTION_DDOT":0},{"OBJECT_NAME":"ONEWEB-0676","OBJECT_ID":"2023-068C","EPOCH":"2025-07-31T12:02:24.006336","MEAN_MOTION":13.16596445,"ECCENTRICITY":0.0002456,"INCLINATION":87.9046,"RA_OF_ASC_NODE":292.7012,"ARG_OF_PERICENTER":103.5534,"MEAN_ANOMALY":256.5871,"EPHEMERIS_TYPE":0,"CLASSIFICATION_TYPE":"U","NORAD_CAT_ID":56712,"ELEMENT_SET_NO":999,"REV_AT_EPOCH":11020,"BSTAR":0.00043541,"MEAN_MOTION_DOT":1.79e-6,"MEAN_MOTION_DDOT":0},{"OBJECT_NAME":"ONEWEB-0677","OBJECT_ID":"2023-068D","EPOCH":"2025-07-31T10:22:46.837920","MEAN_MOTION":13.20771988,"ECCENTRICITY":0.0001955,"INCLINATION":87.928,"RA_OF_ASC_NODE":338.3409,"ARG_OF_PERICENTER":107.2134,"MEAN_ANOMALY":252.9214,"EPHEMERIS_TYPE":0,"CLASSIFICATION_TYPE":"U","NORAD_CAT_ID":56713,"ELEMENT_SET_NO":999,"REV_AT_EPOCH":10816,"BSTAR":4.2632e-5,"MEAN_MOTION_DOT":3.0e-7,"MEAN_MOTION_DDOT":0},{"OBJECT_NAME":"ONEWEB-0678","OBJECT_ID":"2023-068E","EPOCH":"2025-07-31T08:24:15.282432","MEAN_MOTION":13.15549704,"ECCENTRICITY":0.0002161,"INCLINATION":87.9091,"RA_OF_ASC_NODE":323.1628,"ARG_OF_PERICENTER":92.9013,"MEAN_ANOMALY":267.2365,"EPHEMERIS_TYPE":0,"CLASSIFICATION_TYPE":"U","NORAD_CAT_ID":56714,"ELEMENT_SET_NO":999,"REV_AT_EPOCH":10780,"BSTAR":-0.00010825,"MEAN_MOTION_DOT":-2.8e-7,"MEAN_MOTION_DDOT":0},{"OBJECT_NAME":"ONEWEB-0679","OBJECT_ID":"2023-068F","EPOCH":"2025-07-31T11:17:56.114304","MEAN_MOTION":13.16596105,"ECCENTRICITY":0.0001925,"INCLINATION":87.9046,"RA_OF_ASC_NODE":292.6995,"ARG_OF_PERICENTER":114.2246,"MEAN_ANOMALY":245.9086,"EPHEMERIS_TYPE":0,"CLASSIFICATION_TYPE":"U","NORAD_CAT_ID":56715,"ELEMENT_SET_NO":999,"REV_AT_EPOCH":11022,"BSTAR":4.6589e-5,"MEAN_MOTION_DOT":3.1e-7,"MEAN_MOTION_DDOT":0},{"OBJECT_NAME":"ONEWEB-0680","OBJECT_ID":"2023-068G","EPOCH":"2025-07-31T05:17:06.474048","MEAN_MOTION":13.21826092,"ECCENTRICITY":0.0001435,"INCLINATION":87.9264,"RA_OF_ASC_NODE":307.9992,"ARG_OF_PERICENTER":110.666,"MEAN_ANOMALY":249.4628,"EPHEMERIS_TYPE":0,"CLASSIFICATION_TYPE":"U","NORAD_CAT_ID":56716,"ELEMENT_SET_NO":999,"REV_AT_EPOCH":10939,"BSTAR":0.00019867,"MEAN_MOTION_DOT":9.5e-7,"MEAN_MOTION_DDOT":0},{"OBJECT_NAME":"ONEWEB-0681","OBJECT_ID":"2023-068H","EPOCH":"2025-07-30T20:03:55.989216","MEAN_MOTION":13.23390216,"ECCENTRICITY":0.0002644,"INCLINATION":87.927,"RA_OF_ASC_NODE":308.0978,"ARG_OF_PERICENTER":116.8922,"MEAN_ANOMALY":243.2483,"EPHEMERIS_TYPE":0,"CLASSIFICATION_TYPE":"U","NORAD_CAT_ID":56717,"ELEMENT_SET_NO":999,"REV_AT_EPOCH":10863,"BSTAR":-0.0027773,"MEAN_MOTION_DOT":-1.161e-5,"MEAN_MOTION_DDOT":0},{"OBJECT_NAME":"ONEWEB-0682","OBJECT_ID":"2023-068J","EPOCH":"2025-07-30T20:15:14.536800","MEAN_MOTION":13.15547819,"ECCENTRICITY":0.0001489,"INCLINATION":87.907,"RA_OF_ASC_NODE":323.2907,"ARG_OF_PERICENTER":110.7328,"MEAN_ANOMALY":249.3962,"EPHEMERIS_TYPE":0,"CLASSIFICATION_TYPE":"U","NORAD_CAT_ID":56718,"ELEMENT_SET_NO":999,"REV_AT_EPOCH":10720,"BSTAR":0.00031029,"MEAN_MOTION_DOT":1.3e-6,"MEAN_MOTION_DDOT":0}]
